{
  "norad_id": 46916,
  "name": "TIANTONG-1 2",
  "history": [
    {
      "epoch": "2026-03-28T20:30:47.641248Z",
      "apogee_km": 35797.7577782449,
      "perigee_km": 35774.75710107807,
      "latitude_deg": -0.7536341735153159,
      "longitude_deg": 124.9297709212808,
      "height_km": 35788.138420383155,
      "semi_major_axis_km": 42164.39443966149,
      "eccentricity": 0.00027275,
      "inclination_deg": 0.9096,
      "raan_deg": 317.4131,
      "arg_perigee_deg": 42.9273,
      "mean_anomaly_deg": 258.559,
      "mean_motion_rev_day": 1.00272989
    },
    {
      "epoch": "2026-03-28T23:56:12.863904Z",
      "apogee_km": 35797.780075792594,
      "perigee_km": 35774.77517117402,
      "latitude_deg": -0.09341824596232827,
      "longitude_deg": 124.93434528951822,
      "height_km": 35778.4135131986,
      "semi_major_axis_km": 42164.41462348331,
      "eccentricity": 0.0002728,
      "inclination_deg": 0.9095,
      "raan_deg": 317.4344,
      "arg_perigee_deg": 43.3815,
      "mean_anomaly_deg": 309.5798,
      "mean_motion_rev_day": 1.00272917
    },
    {
      "epoch": "2026-03-29T23:53:38.669280Z",
      "apogee_km": 35797.90094216932,
      "perigee_km": 35774.88754101766,
      "latitude_deg": -0.08736245387789852,
      "longitude_deg": 124.93588947493409,
      "height_km": 35778.88792968594,
      "semi_major_axis_km": 42164.5312415935,
      "eccentricity": 0.0002729,
      "inclination_deg": 0.9078,
      "raan_deg": 317.5468,
      "arg_perigee_deg": 45.9225,
      "mean_anomaly_deg": 307.2712,
      "mean_motion_rev_day": 1.00272501
    },
    {
      "epoch": "2026-03-30T06:44:29.263200Z",
      "apogee_km": 35797.98321770343,
      "perigee_km": 35774.875348797555,
      "latitude_deg": 0.883267824865871,
      "longitude_deg": 124.98534186331153,
      "height_km": 35778.27573750302,
      "semi_major_axis_km": 42164.5662832505,
      "eccentricity": 0.00027402,
      "inclination_deg": 0.9071,
      "raan_deg": 317.5796,
      "arg_perigee_deg": 46.6591,
      "mean_anomaly_deg": 49.4942,
      "mean_motion_rev_day": 1.00272376
    },
    {
      "epoch": "2026-03-30T10:09:47.071008Z",
      "apogee_km": 35798.00946183664,
      "perigee_km": 35774.88050203626,
      "latitude_deg": 0.45991397060802786,
      "longitude_deg": 124.9947544665186,
      "height_km": 35788.03528979019,
      "semi_major_axis_km": 42164.581981936455,
      "eccentricity": 0.00027427,
      "inclination_deg": 0.907,
      "raan_deg": 317.5882,
      "arg_perigee_deg": 46.9699,
      "mean_anomaly_deg": 100.6398,
      "mean_motion_rev_day": 1.0027232
    },
    {
      "epoch": "2026-03-30T22:08:30.105888Z",
      "apogee_km": 35798.04768751141,
      "perigee_km": 35774.96001676642,
      "latitude_deg": -0.4580228282507111,
      "longitude_deg": 124.9318767096308,
      "height_km": 35784.0497530555,
      "semi_major_axis_km": 42164.64085213892,
      "eccentricity": 0.00027378,
      "inclination_deg": 0.9062,
      "raan_deg": 317.6424,
      "arg_perigee_deg": 47.7996,
      "mean_anomaly_deg": 279.9281,
      "mean_motion_rev_day": 1.0027211
    },
    {
      "epoch": "2026-03-31T20:23:26.304864Z",
      "apogee_km": 35798.20173889231,
      "perigee_km": 35775.02799126726,
      "latitude_deg": -0.7404115713851059,
      "longitude_deg": 124.93053941700566,
      "height_km": 35789.70617493716,
      "semi_major_axis_km": 42164.751865079794,
      "eccentricity": 0.0002748,
      "inclination_deg": 0.9046,
      "raan_deg": 317.741,
      "arg_perigee_deg": 49.7846,
      "mean_anomaly_deg": 252.4926,
      "mean_motion_rev_day": 1.00271714
    },
    {
      "epoch": "2026-04-01T16:55:35.417856Z",
      "apogee_km": 35798.36396223493,
      "perigee_km": 35775.072096316755,
      "latitude_deg": -0.849377251783279,
      "longitude_deg": 124.94163700933302,
      "height_km": 35797.399315889765,
      "semi_major_axis_km": 42164.855029275845,
      "eccentricity": 0.0002762,
      "inclination_deg": 0.9032,
      "raan_deg": 317.8439,
      "arg_perigee_deg": 52.1424,
      "mean_anomaly_deg": 198.9121,
      "mean_motion_rev_day": 1.00271346
    },
    {
      "epoch": "2026-04-02T19:10:38.758080Z",
      "apogee_km": 35798.521327348186,
      "perigee_km": 35775.18722117701,
      "latitude_deg": -0.8506550091966235,
      "longitude_deg": 124.92472303279945,
      "height_km": 35793.82652616259,
      "semi_major_axis_km": 42164.991274262604,
      "eccentricity": 0.0002767,
      "inclination_deg": 0.9015,
      "raan_deg": 317.9446,
      "arg_perigee_deg": 54.708,
      "mean_anomaly_deg": 231.0851,
      "mean_motion_rev_day": 1.0027086
    },
    {
      "epoch": "2026-04-02T20:18:24.829344Z",
      "apogee_km": 35798.529041917536,
      "perigee_km": 35775.19240227827,
      "latitude_deg": -0.7360419218802522,
      "longitude_deg": 124.92084235260411,
      "height_km": 35790.83959962841,
      "semi_major_axis_km": 42164.997722097905,
      "eccentricity": 0.00027673,
      "inclination_deg": 0.9014,
      "raan_deg": 317.9461,
      "arg_perigee_deg": 54.7604,
      "mean_anomaly_deg": 248.0194,
      "mean_motion_rev_day": 1.00270837
    },
    {
      "epoch": "2026-04-05T20:11:02.443200Z",
      "apogee_km": 35797.22149133202,
      "perigee_km": 35774.68900043582,
      "latitude_deg": -0.7313031220218351,
      "longitude_deg": 124.93766909994879,
      "height_km": 35789.722798778916,
      "semi_major_axis_km": 42164.09224588393,
      "eccentricity": 0.0002672,
      "inclination_deg": 0.8969,
      "raan_deg": 318.2386,
      "arg_perigee_deg": 55.2319,
      "mean_anomaly_deg": 248.3866,
      "mean_motion_rev_day": 1.00274067
    }
  ]
}